KUZGTU 1 (RS47S)        
1 57217U 23091AV  26162.80131549  .00011481  00000+0  40017-3 0  9994
2 57217  97.5072 227.2266 0012342 114.6062 245.6466 15.29737287163557
SONATE-2                
1 59112U 24043Q   26162.68083809  .00036244  00000+0  47794-3 0  9992
2 59112  97.5519 312.7414 0006785 214.2461 145.8357 15.58306667127037
MESAT1                  
1 60209U 24125G   26162.60005230  .00050616  00000+0  56470-3 0  9996
2 60209  97.2312  19.9579 0009060 224.7831 135.2697 15.62604296108693
OOV-CUBE (TUBSAT-30)    
1 60240U 24128F   26162.59923854  .00001977  00000+0  15980-3 0  9990
2 60240  61.9950 245.0577 0045327 132.4986 227.9949 15.02751187105272
COLIBRI-S (RS67S)       
1 61746U 24199M   26162.88920605  .00019611  00000+0  38283-3 0  9998
2 61746  97.3008  36.6963 0006339 304.5967  55.4685 15.47505263136596
HORS 3 (RS81S)          
1 61753U 24199U   26162.81200848  .00033588  00000+0  50838-3 0  9998
2 61753  97.2993  38.5475 0003889 311.5761  48.5159 15.54599607136729
HORS 4 (RS82S)          
1 61754U 24199V   26162.85278035  .00043893  00000+0  55961-3 0  9998
2 61754  97.2940  39.7566 0002989 294.9072  65.1874 15.59186605136819
ARCTICSAT 1 (RS74S)     
1 61762U 24199AD  26162.69842706  .01941667  23574-5  12051-2 0  9997
2 61762  97.2839  46.6254 0009584 214.2159 145.8513 16.17858075137241
SIT-2086                
1 61764U 24199AF  26162.78372133  .00032834  00000+0  53201-3 0  9993
2 61764  97.2949  39.0140 0004354 281.2285  78.8478 15.52714438133590
HYPERVIEW 1G (RS66S)    
1 61772U 24199AP  26162.85331163  .00120653  00000+0  82449-3 0  9991
2 61772  97.2894  42.3086 0002612 249.1519 110.9466 15.74440956133839
ALTAIR (RS65S)          
1 61779U 24199AW  26162.70829289  .00010658  00000+0  29671-3 0  9994
2 61779  97.3045  32.0959 0011621 333.1908  26.8735 15.36924702136275
ASRTU-1 (AO-123)        
1 61781U 24199AY  26162.88690534  .00006895  00000+0  20107-3 0  9998
2 61781  97.3015  31.6060 0012833 334.9444  25.1175 15.35599579133112
SAMSAT-IONOSPHERE (RS7*)
1 61784U 24199BB  26162.85501611  .00040728  00000+0  56015-3 0  9995
2 61784  97.2962  38.6189 0006008 304.6873  55.3816 15.57158119136734
RTU MIREA 1 (RS51S)     
1 61785U 24199BC  26162.69870111  .00053679  00000+0  65001-3 0  9996
2 61785  97.2953  39.2629 0005526 297.8389  62.2308 15.60490677133619
TEVEL2-4                
1 63213U 25052D   26162.70463612  .00017902  00000+0  53861-3 0  9999
2 63213  97.3917  59.0886 0004732 113.7416 246.4323 15.34420215 69273
TEVEL2-5                
1 63214U 25052E   26162.65930424  .00017637  00000+0  53362-3 0  9995
2 63214  97.3921  58.9918 0004616 115.2111 244.9611 15.34247244 69264
TEVEL2-6                
1 63215U 25052F   26162.67150742  .00017453  00000+0  52870-3 0  9994
2 63215  97.3921  58.9890 0004506 114.2026 245.9689 15.34210437 69266
TEVEL2-1                
1 63217U 25052H   26162.69862928  .00016389  00000+0  50495-3 0  9992
2 63217  97.3892  58.6467 0004481 124.0183 236.1485 15.33685523 69253
TEVEL2-3                
1 63218U 25052J   26162.69346801  .00016740  00000+0  51483-3 0  9999
2 63218  97.3895  58.6628 0004465 124.0241 236.1426 15.33739822 69250
TEVEL2-2                
1 63219U 25052K   26162.63372872  .00016607  00000+0  51153-3 0  9997
2 63219  97.3892  58.5842 0004438 124.7997 235.3663 15.33691849 69249
TEVEL2-9                
1 63237U 25052AD  26162.66933140  .00015595  00000+0  51070-3 0  9994
2 63237  97.3955  58.0067 0007180 145.2035 214.9678 15.31729289 69181
TEVEL2-7                
1 63238U 25052AE  26162.64384617  .00015266  00000+0  50453-3 0  9991
2 63238  97.3956  57.8996 0007384 146.6025 213.5683 15.31438085 69172
TEVEL2-8                
1 63239U 25052AF  26162.65204074  .00015443  00000+0  51057-3 0  9999
2 63239  97.3954  57.8849 0007385 147.5513 212.6184 15.31421974 69176
INNOSAT 16 (RS92S7)     
1 64878U 25155C   26162.88544241  .00004891  00000+0  19633-3 0  9990
2 64878  97.4555 130.0301 0009903 194.2401 165.8559 15.25400660 79868
GEOSCAN 6 (RS92S6)      
1 64879U 25155D   26162.88440288  .00009176  00000+0  31780-3 0  9995
2 64879  97.4547 131.4158 0007637 179.9598 180.1644 15.30052999 79953
GEOSCAN 1 (RS92S1)      
1 64880U 25155E   26162.88890010  .00009509  00000+0  32334-3 0  9995
2 64880  97.4543 131.5637 0007590 179.5294 180.5955 15.30640112 79961
239ALFEROV (RS61S)      
1 64881U 25155F   26162.86605965  .00013591  00000+0  43095-3 0  9999
2 64881  97.4544 132.0845 0007288 176.2410 183.8888 15.32798384 79999
GEOSCAN 2 (RS92S2)      
1 64890U 25155Q   26162.88352198  .00009673  00000+0  32612-3 0  9997
2 64890  97.4541 131.7087 0007471 165.8103 194.3349 15.30911566 79971
GEOSCAN 5 (RS92S5)      
1 64891U 25155R   26162.85618745  .00013382  00000+0  42026-3 0  9990
2 64891  97.4537 132.2100 0005977 179.4895 180.6355 15.33116818 80008
GEOSCAN 4 (RS92S4)      
1 64892U 25155S   26162.71038505  .00013590  00000+0  42480-3 0  9991
2 64892  97.4540 132.1098 0006001 180.1188 180.0053 15.33263675 79989
