OBJECT_NAME,OBJECT_ID,EPOCH,MEAN_MOTION,ECCENTRICITY,INCLINATION,RA_OF_ASC_NODE,ARG_OF_PERICENTER,MEAN_ANOMALY,EPHEMERIS_TYPE,CLASSIFICATION_TYPE,NORAD_CAT_ID,ELEMENT_SET_NO,REV_AT_EPOCH,BSTAR,MEAN_MOTION_DOT,MEAN_MOTION_DDOT
KUZGTU 1 (RS47S),2023-091AV,2026-06-11T19:13:53.658336,15.29737287,.0012342,97.5072,227.2266,114.6062,245.6466,0,U,57217,999,16355,.40017E-3,.11481E-3,0
SONATE-2,2024-043Q,2026-06-11T16:20:24.410976,15.58306667,.0006785,97.5519,312.7414,214.2461,145.8357,0,U,59112,999,12703,.47794E-3,.36244E-3,0
MESAT1,2024-125G,2026-06-11T14:24:04.518720,15.62604296,.000906,97.2312,19.9579,224.7831,135.2697,0,U,60209,999,10869,.5647E-3,.50616E-3,0
OOV-CUBE (TUBSAT-30),2024-128F,2026-06-11T14:22:54.209856,15.02751187,.0045327,61.9950,245.0577,132.4986,227.9949,0,U,60240,999,10527,.1598E-3,.1977E-4,0
COLIBRI-S (RS67S),2024-199M,2026-06-11T21:20:27.402720,15.47505263,.0006339,97.3008,36.6963,304.5967,55.4685,0,U,61746,999,13659,.38283E-3,.19611E-3,0
HORS 3 (RS81S),2024-199U,2026-06-11T19:29:17.532672,15.54599607,.0003889,97.2993,38.5475,311.5761,48.5159,0,U,61753,999,13672,.50838E-3,.33588E-3,0
HORS 4 (RS82S),2024-199V,2026-06-11T20:28:00.222240,15.59186605,.0002989,97.2940,39.7566,294.9072,65.1874,0,U,61754,999,13681,.55961E-3,.43893E-3,0
ARCTICSAT 1 (RS74S),2024-199AD,2026-06-11T16:45:44.097984,16.17858075,.0009584,97.2839,46.6254,214.2159,145.8513,0,U,61762,999,13724,.12051E-2,.1941667E-1,.23574E-5
SIT-2086,2024-199AF,2026-06-11T18:48:33.522912,15.52714438,.0004354,97.2949,39.0140,281.2285,78.8478,0,U,61764,999,13359,.53201E-3,.32834E-3,0
HYPERVIEW 1G (RS66S),2024-199AP,2026-06-11T20:28:46.124832,15.74440956,.0002612,97.2894,42.3086,249.1519,110.9466,0,U,61772,999,13383,.82449E-3,.120653E-2,0
ALTAIR (RS65S),2024-199AW,2026-06-11T16:59:56.505696,15.36924702,.0011621,97.3045,32.0959,333.1908,26.8735,0,U,61779,999,13627,.29671E-3,.10658E-3,0
ASRTU-1 (AO-123),2024-199AY,2026-06-11T21:17:08.621376,15.35599579,.0012833,97.3015,31.6060,334.9444,25.1175,0,U,61781,999,13311,.20107E-3,.6895E-4,0
SAMSAT-IONOSPHERE (RS75S),2024-199BB,2026-06-11T20:31:13.391904,15.57158119,.0006008,97.2962,38.6189,304.6873,55.3816,0,U,61784,999,13673,.56015E-3,.40728E-3,0
RTU MIREA 1 (RS51S),2024-199BC,2026-06-11T16:46:07.775904,15.60490677,.0005526,97.2953,39.2629,297.8389,62.2308,0,U,61785,999,13361,.65001E-3,.53679E-3,0
TEVEL2-4,2025-052D,2026-06-11T16:54:40.560768,15.34420215,.0004732,97.3917,59.0886,113.7416,246.4323,0,U,63213,999,6927,.53861E-3,.17902E-3,0
TEVEL2-5,2025-052E,2026-06-11T15:49:23.886336,15.34247244,.0004616,97.3921,58.9918,115.2111,244.9611,0,U,63214,999,6926,.53362E-3,.17637E-3,0
TEVEL2-6,2025-052F,2026-06-11T16:06:58.241088,15.34210437,.0004506,97.3921,58.9890,114.2026,245.9689,0,U,63215,999,6926,.5287E-3,.17453E-3,0
TEVEL2-1,2025-052H,2026-06-11T16:46:01.569792,15.33685523,.0004481,97.3892,58.6467,124.0183,236.1485,0,U,63217,999,6925,.50495E-3,.16389E-3,0
TEVEL2-3,2025-052J,2026-06-11T16:38:35.636064,15.33739822,.0004465,97.3895,58.6628,124.0241,236.1426,0,U,63218,999,6925,.51483E-3,.1674E-3,0
TEVEL2-2,2025-052K,2026-06-11T15:12:34.161408,15.33691849,.0004438,97.3892,58.5842,124.7997,235.3663,0,U,63219,999,6924,.51153E-3,.16607E-3,0
TEVEL2-9,2025-052AD,2026-06-11T16:03:50.232960,15.31729289,.000718,97.3955,58.0067,145.2035,214.9678,0,U,63237,999,6918,.5107E-3,.15595E-3,0
TEVEL2-7,2025-052AE,2026-06-11T15:27:08.309088,15.31438085,.0007384,97.3956,57.8996,146.6025,213.5683,0,U,63238,999,6917,.50453E-3,.15266E-3,0
TEVEL2-8,2025-052AF,2026-06-11T15:38:56.319936,15.31421974,.0007385,97.3954,57.8849,147.5513,212.6184,0,U,63239,999,6917,.51057E-3,.15443E-3,0
INNOSAT 16 (RS92S7),2025-155C,2026-06-11T21:15:02.224224,15.25400660,.0009903,97.4555,130.0301,194.2401,165.8559,0,U,64878,999,7986,.19633E-3,.4891E-4,0
GEOSCAN 6 (RS92S6),2025-155D,2026-06-11T21:13:32.408832,15.30052999,.0007637,97.4547,131.4158,179.9598,180.1644,0,U,64879,999,7995,.3178E-3,.9176E-4,0
GEOSCAN 1 (RS92S1),2025-155E,2026-06-11T21:20:00.968640,15.30640112,.000759,97.4543,131.5637,179.5294,180.5955,0,U,64880,999,7996,.32334E-3,.9509E-4,0
239ALFEROV (RS61S),2025-155F,2026-06-11T20:47:07.553760,15.32798384,.0007288,97.4544,132.0845,176.2410,183.8888,0,U,64881,999,7999,.43095E-3,.13591E-3,0
GEOSCAN 2 (RS92S2),2025-155Q,2026-06-11T21:12:16.299072,15.30911566,.0007471,97.4541,131.7087,165.8103,194.3349,0,U,64890,999,7997,.32612E-3,.9673E-4,0
GEOSCAN 5 (RS92S5),2025-155R,2026-06-11T20:32:54.595680,15.33116818,.0005977,97.4537,132.2100,179.4895,180.6355,0,U,64891,999,8000,.42026E-3,.13382E-3,0
GEOSCAN 4 (RS92S4),2025-155S,2026-06-11T17:02:57.268320,15.33263675,.0006001,97.4540,132.1098,180.1188,180.0053,0,U,64892,999,7998,.4248E-3,.1359E-3,0
